#dP2022 11 12  0  0  0.00000000      96 __u+U ITR14 FIT  IAC
## 2235 518400.00000000   900.00000000 59895 0.0000000000000
+  127   C01C02C03C04C05C06C07C08C09C10C11C12C13C14C16C19C20
+        C21C22C23C24C25C26C27C28C29C30C32C33C34C35C36C37C38
+        C39C40C41C42C43C44C45C46C59C60E01E02E03E04E05E08E09
+        E10E11E12E13E14E15E18E19E21E24E25E26E27E30E31E33E34
+        E36G01G02G03G04G05G06G07G08G09G10G11G12G13G14G15G16
+        G17G18G19G20G21G22G23G24G25G26G27G29G30G31G32J02J03
+        J04J07R01R02R03R04R05R06R07R08R09R10R11R12R13R14R15
+        R17R18R19R20R21R22R23R24  0  0  0  0  0  0  0  0  0
++        17 17 17 17 17  9  9 10  9  9  9  9  9  9  9  7  7
++         7  7  7  7  7  7  7  7  7  7  7  7  8  7  7  7  8
++         8  8  7  7  8  7  7  7 18 17  4  4  4  4  4  4  4
++         4  4  4  4  5  4  4  4  4  4  4  5  4  4  5  5  4
++         4  4  7  4  4  4  4  4  4  4  4  4  4  4  4  4  4
++         4  4  4  4  4  4  4  4  4  4  4  4  3  4  4  8  8
++         8 17  7  6  6  6  6 15  6  6  5 15  6  6  7  6  6
++         6  6  7  7  6  8 15  6  0  0  0  0  0  0  0  0  0
%c M  cc GPS ccc cccc cccc cccc cccc ccccc ccccc ccccc ccccc
%c cc cc ccc ccc cccc cccc cccc cccc ccccc ccccc ccccc ccccc
%f  0.0000000  0.000000000  0.00000000000  0.000000000000000
%f  0.0000000  0.000000000  0.00000000000  0.000000000000000
%i    0    0    0    0      0      0      0      0         0
%i    0    0    0    0      0      0      0      0         0
/* INFORMATION & ANALYSIS CENTER (IAC)            RAPID DATA
/* S/V CLOCKS ARE ALIGNED TO GNSS TIME                      
/* G:C1WC2W R:C1PC2P E:C1XC5X C:C2IC6I J:C1CC2S             
/* PCV:IGS14_2233 OL/AL:FES2004  NONE     YN ORB:CoN CLK:CoN
*  2022 11 12 14 45  0.00000000
PC01 -34350.066101  24493.980887   -330.922490    879.668930
PC02   4422.259373  41823.465191   -928.095405    449.248612
PC03 -14713.615078  39477.925152   -882.436989   -179.295152
PC04 -39631.375664  14455.445888    285.834973   -272.304989
PC05  21963.143510  35946.552767  -1369.078727    -31.096075
PC06  -4596.292382  39418.173804 -13904.996648      2.587472
PC07  -8277.416273  25881.851502  32289.375463    224.348074
PC08 -20458.383809  31501.566824 -19350.903475    510.654435
PC09    954.838735  41607.018768  -4252.210296   -809.146233
PC10    882.093674  27890.475847  31980.286530     69.405663
PC11  -5307.989348 -27270.048239  -2352.835220   -296.616673
PC12   6795.531505 -20304.734083 -17840.926516    298.493295
PC13 -11723.849056  31446.876025 -25549.717678    131.438948
PC14  -7557.774690 -16735.584284  21008.476125    646.803771
PC16  -7505.609721  36951.572856 -18407.443309    117.846198
PC19  17521.858566  15217.586321 -15489.914270   -915.262063
PC20  -1441.221821  15810.289199 -22947.454934    839.405909
PC21  20986.767126  -6854.172628  17083.984964   -806.327882
PC22  27261.626572   5877.431053   1246.076304   -797.834109
PC23 -19843.926371    182.162713 -19620.168515   -878.416081
PC24  11640.498747 -23008.584756 -10641.792430   -817.105650
PC25  -7267.493939 -15467.387308 -22065.671556     23.595935
PC26  21127.005545 -17466.707095   5104.657062    -34.886742
PC27 -12202.339073  12532.437992  21725.948572     50.273224
PC28 -17017.348552  -7334.544234  20870.395969     35.148749
PC29  12688.680973  23826.361479  -7082.188090     39.537696
PC30     61.942872  25644.679691  10981.227973      0.934149
PC32 -20999.854094   6959.915281 -17001.092997   -721.107677
PC33 -17486.574089 -15168.727980  15574.517006   -913.465559
PC34   -860.093591 -26068.198728  -9954.094196     37.698259
PC35  17379.868870   8391.215425 -20150.243195     84.942075
PC36   6312.190675  16102.387400  21924.041037   -846.700826
PC37 -21894.814330  16120.895947  -6338.196077   -815.433202
PC38 -24793.041767  32153.211186 -11704.877473     37.640525
PC39  -8580.003806  34406.164526 -22657.437761     -0.839056
PC40 -13384.662558  19157.103870  35080.698993     -7.947647
PC41 -27209.567257  -6169.187503   -636.281052   -268.535731
PC42   2869.479838 -15581.021443  23007.629958   -650.102992
PC43 -12260.598225 -24265.145942   6332.607290     24.601793
PC44  11974.354370 -12830.747784 -21709.489633    111.575901
PC45  19921.856826   -578.723994  19521.382477    -21.506346
PC46 -10246.601313  22955.210778  12163.079322    -12.517341
PC59 -32289.719207  27129.679901   -779.477064      0.581731
PC60   7275.196414  41543.656743   -162.703356     -0.895344
PE01 -28888.752527   5890.569190  -2690.501779   -564.618305
PE02  28861.549733  -6030.977959   2482.479059      2.159713
PE03  21551.751815   1199.237481  20247.575105   -619.256227
PE04  -7709.020468  15900.409083 -23748.852772  -1157.012045
PE05  23027.750514  17975.730715   4760.300755   -125.356433
PE08   7568.348199 -15814.743297  23840.097742   -631.157074
PE09  11035.213647  23944.907568 -13470.889964   -726.608136
PE10  -6646.972952  28835.248105   -984.600751   -490.313005
PE11    475.650079  27376.758941 -11246.122780   1360.791422
PE12 -12261.540248  25567.756781   8481.373379   -273.140343
PE13    111.326897 -27689.071005  10466.365611    430.611171
PE14  25690.918206  11004.263410 -16441.094290     54.601078
PE15  12304.368905 -25455.651101  -8746.903474    707.911587
PE18 -18486.626344  -8286.293709  11899.889203   -751.532993
PE19 -22520.395344  -3854.767685 -18824.664484  -4015.784250
PE21 -22383.517028  -6743.390458 -18159.368464   -494.218339
PE24   1453.036716  16854.790174  24282.082187   -943.403864
PE25  22141.608038   6960.797178  18373.637282   -592.503742
PE26 -12565.985596 -12833.906121  23532.624432  -1836.774734
PE27  -2653.446359 -16542.756734 -24395.716030   -437.870697
PE30  19167.014993 -16253.489179 -15631.108286   -992.653110
PE31 -18457.826072  16519.730336  16221.274274   -508.000749
PE33 -17163.209335   8206.488824  22684.494371   -455.464858
PE34  17147.805211  -8415.200682 -22608.174111    -14.243376
PE36  12012.194467  13677.636336 -23334.861465   -459.782596
PG01 -13772.332896  20507.853714   8971.355413    252.895938
PG02  10679.883502 -23392.566467  -6408.969316   -638.171630
PG03 -20262.116256  12200.849422 -12102.529886   -372.307963
PG04  -9226.720635  12499.198845 -21531.247864    -87.691563
PG05  25988.825537  -5773.393943   -540.534711   -104.020121
PG06   8924.323374  14618.067305 -20210.229254    516.385877
PG07  -4817.461588  25359.502267   5436.492198    288.278676
PG08 -16962.023653   2442.161968  20343.506791    -93.469300
PG09   1938.024387  20264.089413 -17118.647937   -269.742048
PG10 -10853.434064 -12402.185222  21053.286628    -11.588549
PG11  15204.709424   2443.930874 -21629.967718    -38.648354
PG12  21365.273557 -10698.394754 -11756.374286   -303.394458
PG13  18718.869307   6716.177940  17521.778361    423.293581
PG14   8131.381848  13972.305119  21098.528619    -83.953855
PG15  16748.006770  -4751.798900  19684.525706    -13.019959
PG16 -26333.125123   -970.009683  -5219.156052   -526.889694
PG17  11744.501783  22935.986526   6715.836585    677.261448
PG18   4267.808438 -25198.825082   6953.564126    -19.339141
PG19  17657.522274  19425.605973  -5108.672965    236.403900
PG20  23015.741212   1508.455008 -12951.258567    470.724174
PG21 -15728.871882  13025.773817  17162.118597    156.205259
PG22 -18642.674420 -17672.549367  -6680.823723    363.198089
PG23   1565.497779 -15425.764674  21540.115532     -1.054187
PG24  14294.283822 -17934.884608  12692.338036     62.007064
PG25  11187.233160 -15610.739417 -18521.824747    391.893416
PG26 -21367.959090  -5902.366661 -14959.212751    235.569885
PG27 -20690.344614  -9272.378895  13936.101779    179.569575
PG29   1063.229766 -19243.590167 -18280.313960   -566.680907
PG30   3953.538525  21503.834053  14992.700207   -536.759855
PG31 -10556.851726 -13223.776638 -20515.151539   -199.944903
PG32 -15353.416914 -21500.641138   3781.973820   -293.845626
PJ02 -30153.634612  26429.509201  17976.562775     -0.110418
PJ03 -26925.154115  26219.352562  24198.782450     -4.504160
PJ04 -30481.287598  19872.838766 -16104.804096    112.916393
PJ07 -25403.029513  33664.156433     -1.154709      0.017784
PR01  15642.149916  14146.150784 -14359.241537     17.758746
PR02  23547.002768   8790.844284   4163.414595    -23.303455
PR03  17069.568593  -2039.782143  18855.578713     67.164840
PR04   1231.878776 -11211.631675  22900.955977    164.648944
PR05 -15247.495630 -14523.786200  14422.359829    102.795508
PR06 -23874.804168  -7408.984848  -5168.282204    -79.913304
PR07 -16608.587992   2407.646315 -19200.150941     44.196397
PR08  -1113.224732  11338.092215 -22769.586802    -68.044244
PR09 -18061.049048   2576.734653 -17774.165912     87.194598
PR10 -21412.723152  13254.027976  -4316.660623    -87.728869
PR11 -12977.506440  17435.736831  13350.578500     20.990480
PR12   4075.058186  10561.630871  22884.887501     22.797763
PR13  17119.922440  -1442.117765  18838.549006    -28.793307
PR14  21218.949418 -13927.485355   2629.919774     24.125782
PR15  12354.967423 -17264.779665 -14121.274816     92.782726
PR17   8707.263841 -11014.010063 -21270.630649    577.468688
PR18   2314.453192 -23599.135949  -9439.194078     51.646772
PR19  -4027.675373 -24443.229984   6063.687693   -210.702383
PR20 -10044.173764  -9413.215852  21496.174234    -81.996856
PR21  -8231.921316  12638.758120  20586.528191   -349.123239
PR22  -3072.632399  23774.104213   8737.838489     15.771680
PR23   6576.759671  22094.832038 -10926.369359    -61.826120
PR24  10803.537604   8386.592642 -21514.239813    126.062775
EOF
